CCSDS_OMM_VERS = 2.0
CREATION_DATE  = 
ORIGINATOR     = 

OBJECT_NAME    = CYGNUS NG-23
OBJECT_ID      = 2025-208A
CENTER_NAME    = EARTH
REF_FRAME      = TEME
TIME_SYSTEM    = UTC
MEAN_ELEMENT_THEORY = SGP/SGP4

EPOCH          = 2025-12-21T22:57:18.016992
MEAN_MOTION    = 15.49714244
ECCENTRICITY   = .00031643
INCLINATION    = 51.6324
RA_OF_ASC_NODE = 96.8363
ARG_OF_PERICENTER = 283.4657
MEAN_ANOMALY   = 76.5979

EPHEMERIS_TYPE = 0
CLASSIFICATION_TYPE = U
NORAD_CAT_ID   = 65616
ELEMENT_SET_NO = 999
REV_AT_EPOCH   = 22
BSTAR          = .20227117E-3
MEAN_MOTION_DOT = .1099E-3
MEAN_MOTION_DDOT = 0

CCSDS_OMM_VERS = 2.0
CREATION_DATE  = 
ORIGINATOR     = 

OBJECT_NAME    = DRAGONFLY
OBJECT_ID      = 1998-067XH
CENTER_NAME    = EARTH
REF_FRAME      = TEME
TIME_SYSTEM    = UTC
MEAN_ELEMENT_THEORY = SGP/SGP4

EPOCH          = 2025-12-21T12:05:00.182112
MEAN_MOTION    = 15.74757439
ECCENTRICITY   = .00076429
INCLINATION    = 51.6248
RA_OF_ASC_NODE = 90.7906
ARG_OF_PERICENTER = 331.3887
MEAN_ANOMALY   = 28.6692

EPHEMERIS_TYPE = 0
CLASSIFICATION_TYPE = U
NORAD_CAT_ID   = 65729
ELEMENT_SET_NO = 999
REV_AT_EPOCH   = 1454
BSTAR          = .11143693E-2
MEAN_MOTION_DOT = .170588E-2
MEAN_MOTION_DDOT = 0

CCSDS_OMM_VERS = 2.0
CREATION_DATE  = 
ORIGINATOR     = 

OBJECT_NAME    = 1998-067XK
OBJECT_ID      = 1998-067XK
CENTER_NAME    = EARTH
REF_FRAME      = TEME
TIME_SYSTEM    = UTC
MEAN_ELEMENT_THEORY = SGP/SGP4

EPOCH          = 2025-12-21T23:36:26.096832
MEAN_MOTION    = 15.67429513
ECCENTRICITY   = .00048355
INCLINATION    = 51.6293
RA_OF_ASC_NODE = 90.2734
ARG_OF_PERICENTER = 305.1289
MEAN_ANOMALY   = 54.9254

EPHEMERIS_TYPE = 0
CLASSIFICATION_TYPE = U
NORAD_CAT_ID   = 65731
ELEMENT_SET_NO = 999
REV_AT_EPOCH   = 1459
BSTAR          = .976025E-3
MEAN_MOTION_DOT = .108748E-2
MEAN_MOTION_DDOT = 0

CCSDS_OMM_VERS = 2.0
CREATION_DATE  = 
ORIGINATOR     = 

OBJECT_NAME    = RSP-03
OBJECT_ID      = 1998-067XL
CENTER_NAME    = EARTH
REF_FRAME      = TEME
TIME_SYSTEM    = UTC
MEAN_ELEMENT_THEORY = SGP/SGP4

EPOCH          = 2025-12-22T06:54:35.592480
MEAN_MOTION    = 15.70976821
ECCENTRICITY   = .00056984
INCLINATION    = 51.6263
RA_OF_ASC_NODE = 87.7899
ARG_OF_PERICENTER = 311.2315
MEAN_ANOMALY   = 48.8191

EPHEMERIS_TYPE = 0
CLASSIFICATION_TYPE = U
NORAD_CAT_ID   = 65732
ELEMENT_SET_NO = 999
REV_AT_EPOCH   = 1466
BSTAR          = .11568337E-2
MEAN_MOTION_DOT = .150193E-2
MEAN_MOTION_DDOT = 0

CCSDS_OMM_VERS = 2.0
CREATION_DATE  = 
ORIGINATOR     = 

OBJECT_NAME    = GHS-01
OBJECT_ID      = 1998-067XM
CENTER_NAME    = EARTH
REF_FRAME      = TEME
TIME_SYSTEM    = UTC
MEAN_ELEMENT_THEORY = SGP/SGP4

EPOCH          = 2025-12-21T11:59:59.059968
MEAN_MOTION    = 15.78528465
ECCENTRICITY   = .00088162
INCLINATION    = 51.6282
RA_OF_ASC_NODE = 90.0237
ARG_OF_PERICENTER = 335.2591
MEAN_ANOMALY   = 24.7986

EPHEMERIS_TYPE = 0
CLASSIFICATION_TYPE = U
NORAD_CAT_ID   = 65733
ELEMENT_SET_NO = 999
REV_AT_EPOCH   = 1456
BSTAR          = .13106356E-2
MEAN_MOTION_DOT = .239293E-2
MEAN_MOTION_DDOT = 0

CCSDS_OMM_VERS = 2.0
CREATION_DATE  = 
ORIGINATOR     = 

OBJECT_NAME    = YOTSUBA-KULOVER
OBJECT_ID      = 1998-067XN
CENTER_NAME    = EARTH
REF_FRAME      = TEME
TIME_SYSTEM    = UTC
MEAN_ELEMENT_THEORY = SGP/SGP4

EPOCH          = 2025-12-22T06:10:09.411168
MEAN_MOTION    = 15.60674644
ECCENTRICITY   = .00021538
INCLINATION    = 51.6293
RA_OF_ASC_NODE = 92.0993
ARG_OF_PERICENTER = 341.2736
MEAN_ANOMALY   = 18.8178

EPHEMERIS_TYPE = 0
CLASSIFICATION_TYPE = U
NORAD_CAT_ID   = 65941
ELEMENT_SET_NO = 999
REV_AT_EPOCH   = 1134
BSTAR          = .88673356E-3
MEAN_MOTION_DOT = .75191E-3
MEAN_MOTION_DDOT = 0

CCSDS_OMM_VERS = 2.0
CREATION_DATE  = 
ORIGINATOR     = 

OBJECT_NAME    = BOTAN
OBJECT_ID      = 1998-067XP
CENTER_NAME    = EARTH
REF_FRAME      = TEME
TIME_SYSTEM    = UTC
MEAN_ELEMENT_THEORY = SGP/SGP4

EPOCH          = 2025-12-21T23:37:13.039680
MEAN_MOTION    = 15.64723057
ECCENTRICITY   = .00030592
INCLINATION    = 51.6285
RA_OF_ASC_NODE = 92.5255
ARG_OF_PERICENTER = 316.6452
MEAN_ANOMALY   = 43.4302

EPHEMERIS_TYPE = 0
CLASSIFICATION_TYPE = U
NORAD_CAT_ID   = 65942
ELEMENT_SET_NO = 999
REV_AT_EPOCH   = 1131
BSTAR          = .11948003E-2
MEAN_MOTION_DOT = .119607E-2
MEAN_MOTION_DDOT = 0

CCSDS_OMM_VERS = 2.0
CREATION_DATE  = 
ORIGINATOR     = 

OBJECT_NAME    = E-KAGAKU-1
OBJECT_ID      = 1998-067XQ
CENTER_NAME    = EARTH
REF_FRAME      = TEME
TIME_SYSTEM    = UTC
MEAN_ELEMENT_THEORY = SGP/SGP4

EPOCH          = 2025-12-21T11:43:47.711424
MEAN_MOTION    = 15.60558335
ECCENTRICITY   = .00011984
INCLINATION    = 51.6316
RA_OF_ASC_NODE = 95.9734
ARG_OF_PERICENTER = 280.9822
MEAN_ANOMALY   = 79.1036

EPHEMERIS_TYPE = 0
CLASSIFICATION_TYPE = U
NORAD_CAT_ID   = 65943
ELEMENT_SET_NO = 999
REV_AT_EPOCH   = 1122
BSTAR          = .73910068E-3
MEAN_MOTION_DOT = .62201E-3
MEAN_MOTION_DDOT = 0

CCSDS_OMM_VERS = 2.0
CREATION_DATE  = 
ORIGINATOR     = 

OBJECT_NAME    = HRC MONOBLOCK CAMERA
OBJECT_ID      = 1998-067XR
CENTER_NAME    = EARTH
REF_FRAME      = TEME
TIME_SYSTEM    = UTC
MEAN_ELEMENT_THEORY = SGP/SGP4

EPOCH          = 2025-12-21T17:10:53.034240
MEAN_MOTION    = 15.54728821
ECCENTRICITY   = .00023026
INCLINATION    = 51.6309
RA_OF_ASC_NODE = 96.7319
ARG_OF_PERICENTER = 227.1692
MEAN_ANOMALY   = 132.9105

EPHEMERIS_TYPE = 0
CLASSIFICATION_TYPE = U
NORAD_CAT_ID   = 66052
ELEMENT_SET_NO = 999
REV_AT_EPOCH   = 1023
BSTAR          = .48538169E-3
MEAN_MOTION_DOT = .32497E-3
MEAN_MOTION_DDOT = 0

CCSDS_OMM_VERS = 2.0
CREATION_DATE  = 
ORIGINATOR     = 

OBJECT_NAME    = HTV-X1
OBJECT_ID      = 2025-241A
CENTER_NAME    = EARTH
REF_FRAME      = TEME
TIME_SYSTEM    = UTC
MEAN_ELEMENT_THEORY = SGP/SGP4

EPOCH          = 2025-12-21T22:57:18.016992
MEAN_MOTION    = 15.49714244
ECCENTRICITY   = .00031643
INCLINATION    = 51.6324
RA_OF_ASC_NODE = 96.8363
ARG_OF_PERICENTER = 283.4657
MEAN_ANOMALY   = 76.5979

EPHEMERIS_TYPE = 0
CLASSIFICATION_TYPE = U
NORAD_CAT_ID   = 66174
ELEMENT_SET_NO = 999
REV_AT_EPOCH   = 51
BSTAR          = .20227117E-3
MEAN_MOTION_DOT = .1099E-3
MEAN_MOTION_DDOT = 0

CCSDS_OMM_VERS = 2.0
CREATION_DATE  = 
ORIGINATOR     = 

OBJECT_NAME    = SZ-21 MODULE
OBJECT_ID      = 2025-246C
CENTER_NAME    = EARTH
REF_FRAME      = TEME
TIME_SYSTEM    = UTC
MEAN_ELEMENT_THEORY = SGP/SGP4

EPOCH          = 2025-12-22T06:04:32.826144
MEAN_MOTION    = 15.62957896
ECCENTRICITY   = .00052091
INCLINATION    = 41.4776
RA_OF_ASC_NODE = 317.9924
ARG_OF_PERICENTER = 311.1717
MEAN_ANOMALY   = 48.8673

EPHEMERIS_TYPE = 0
CLASSIFICATION_TYPE = U
NORAD_CAT_ID   = 66515
ELEMENT_SET_NO = 999
REV_AT_EPOCH   = 593
BSTAR          = .31521047E-3
MEAN_MOTION_DOT = .29176E-3
MEAN_MOTION_DDOT = 0

CCSDS_OMM_VERS = 2.0
CREATION_DATE  = 
ORIGINATOR     = 

OBJECT_NAME    = SHENZHOU-22
OBJECT_ID      = 2025-272A
CENTER_NAME    = EARTH
REF_FRAME      = TEME
TIME_SYSTEM    = UTC
MEAN_ELEMENT_THEORY = SGP/SGP4

EPOCH          = 2025-12-22T04:38:19.938912
MEAN_MOTION    = 15.59558261
ECCENTRICITY   = .00077972
INCLINATION    = 41.4687
RA_OF_ASC_NODE = 319.2988
ARG_OF_PERICENTER = 114.0639
MEAN_ANOMALY   = 246.1016

EPHEMERIS_TYPE = 0
CLASSIFICATION_TYPE = U
NORAD_CAT_ID   = 66645
ELEMENT_SET_NO = 999
REV_AT_EPOCH   = 26550
BSTAR          = .24063854E-3
MEAN_MOTION_DOT = .19415E-3
MEAN_MOTION_DDOT = 0

