CYGNUS NG-23            
1 65616U 25208A   25355.95645853  .00010990  00000+0  20227-3 0  9990
2 65616  51.6324  96.8363 0003164 283.4657  76.5979 15.49714244   229
DRAGONFLY               
1 65729U 98067XH  25355.50347433  .00170588  00000+0  11144-2 0  9999
2 65729  51.6248  90.7906 0007642 331.3887  28.6692 15.74757439 14549
1998-067XK              
1 65731U 98067XK  25355.98363538  .00108748  00000+0  97602-3 0  9991
2 65731  51.6293  90.2734 0004835 305.1289  54.9254 15.67429513 14594
RSP-03                  
1 65732U 98067XL  25356.28791195  .00150193  00000+0  11568-2 0  9997
2 65732  51.6263  87.7899 0005698 311.2315  48.8191 15.70976821 14664
GHS-01                  
1 65733U 98067XM  25355.49998912  .00239293  00000+0  13106-2 0  9995
2 65733  51.6282  90.0237 0008816 335.2591  24.7986 15.78528465 14565
YOTSUBA-KULOVER         
1 65941U 98067XN  25356.25705337  .00075191  00000+0  88673-3 0  9995
2 65941  51.6293  92.0993 0002153 341.2736  18.8178 15.60674644 11347
BOTAN                   
1 65942U 98067XP  25355.98417870  .00119607  00000+0  11948-2 0  9998
2 65942  51.6285  92.5255 0003059 316.6452  43.4302 15.64723057 11319
E-KAGAKU-1              
1 65943U 98067XQ  25355.48874666  .00062201  00000+0  73910-3 0  9999
2 65943  51.6316  95.9734 0001198 280.9822  79.1036 15.60558335 11221
HRC MONOBLOCK CAMERA    
1 66052U 98067XR  25355.71589160  .00032497  00000+0  48538-3 0  9991
2 66052  51.6309  96.7319 0002302 227.1692 132.9105 15.54728821 10236
HTV-X1                  
1 66174U 25241A   25355.95645853  .00010990  00000+0  20227-3 0  9997
2 66174  51.6324  96.8363 0003164 283.4657  76.5979 15.49714244   511
SZ-21 MODULE            
1 66515U 25246C   25356.25315771  .00029176  00000+0  31521-3 0  9993
2 66515  41.4776 317.9924 0005209 311.1717  48.8673 15.62957896  5937
SHENZHOU-22             
1 66645U 25272A   25356.19328633  .00019415  00000+0  24064-3 0  9999
2 66645  41.4687 319.2988 0007797 114.0639 246.1016 15.59558261265508
